1  4382U 70034A   23322.53796674  .00001306  00000-0  20897-3 0  9999
2  4382  68.4274 177.3588 1035915 106.7316 264.9873 13.10239051522112
1 04382U 70034A   23322.61430371  .00001268  00000-0  20333-3 0  9999
2 04382  68.4274 177.2042 1035911 106.6632 265.0588 13.10239142522129
1 04382U 70034A   23322.84331470  .00001112  00000-0  17990-3 0  9997
2 04382  68.4273 176.7405 1035889 106.4577 265.2731 13.10239059522157
1 04382U 70034A   23323.60668402  .00001189  00000-0  19156-3 0  9990
2 04382  68.4272 175.1945 1035839 105.7718 265.9878 13.10241712522251
1  4382U 70034A   23323.83569455  .00001183  00000-0  19065-3 0  9996
2  4382  68.4271 174.7307 1035820 105.5662 266.2017 13.10242288522284
1 04382U 70034A   23323.91203160  .00001021  00000-0  16630-3 0  9999
2 04382  68.4271 174.5762 1035815 105.4977 266.2729 13.10241603522290
1 04382U 70034A   23324.59906209  .00001155  00000-0  18644-3 0  9993
2 04382  68.4269 173.1848 1035769 104.8804 266.9139 13.10244246522385
1 04382U 70034A   23324.90440852  .00001082  00000-0  17561-3 0  9991
2 04382  68.4269 172.5664 1035743 104.6060 267.1984 13.10244768522423
1  4382U 70034A   23325.05708172  .00001070  00000-0  17372-3 0  9997
2  4382  68.4269 172.2572 1035734 104.4689 267.3404 13.10245116522442
1 04382U 70034A   23325.59143714  .00001261  00000-0  20247-3 0  9998
2 04382  68.4267 171.1750 1035701 103.9888 267.8373 13.10247603522516
1 04382U 70034A   23325.82044605  .00001415  00000-0  22567-3 0  9991
2 04382  68.4267 170.7112 1035677 103.7830 268.0499 13.10249120522541
1  4382U 70034A   23326.12579124  .00001455  00000-0  23164-3 0  9992
2  4382  68.4266 170.0928 1035661 103.5088 268.3331 13.10250201522588
1 04382U 70034A   23326.58380912  .00001938  00000-0  30445-3 0  9993
2 04382  68.4271 169.1654 1035584 103.0971 268.7572 13.10252382522649
1 04382U 70034A   23326.88915353  .00002246  00000-0  35087-3 0  9999
2 04382  68.4270 168.5470 1035561 102.8237 269.0388 13.10254188522683
1  4382U 70034A   23327.49984105  .00001973  00000-0  30985-3 0  9996
2  4382  68.4268 167.3102 1035520 102.2753 269.6029 13.10256138522765
1 04382U 70034A   23327.57617703  .00001886  00000-0  29677-3 0  9991
2 04382  68.4268 167.1555 1035518 102.2065 269.6736 13.10256160522779
1 04382U 70034A   23327.88152017  .00001920  00000-0  30190-3 0  9998
2 04382  68.4267 166.5371 1035499 101.9315 269.9560 13.10257426522818
1 04382U 70034A   23328.56854124  .00001900  00000-0  29889-3 0  9993
2 04382  68.4265 165.1457 1035453 101.3141 270.5889 13.10260290522902
1  4382U 70034A   23328.79754777  .00001974  00000-0  31014-3 0  9995
2  4382  68.4265 164.6819 1035433 101.1088 270.7990 13.10261292522935
1 04382U 70034A   23328.87388312  .00001984  00000-0  31156-3 0  9990
2 04382  68.4265 164.5273 1035428 101.0401 270.8694 13.10261726522945
1 04382U 70034A   23329.56090084  .00002317  00000-0  36185-3 0  9991
2 04382  68.4263 163.1358 1035378 100.4235 271.4993 13.10265975523034
1 04382U 70034A   23329.86624045  .00003042  00000-0  47089-3 0  9995
2 04382  68.4263 162.5174 1035351 100.1484 271.7799 13.10269901523071
1  4382U 70034A   23330.09524550  .00003385  00000-0  52260-3 0  9999
2  4382  68.4261 162.0535 1035314  99.9415 271.9906 13.10271369523100
1 04382U 70034A   23330.55325556  .00002404  00000-0  37507-3 0  9993
2 04382  68.4260 161.1259 1035303  99.5295 272.4103 13.10271144523164
1 04382U 70034A   23330.93492933  .00002053  00000-0  32218-3 0  9993
2 04382  68.4259 160.3528 1035283  99.1859 272.7598 13.10272372523212
1  4382U 70034A   23331.46927169  .00001692  00000-0  26791-3 0  9993
2  4382  68.4257 159.2707 1035251  98.7056 273.2474 13.10274427523284
1 04382U 70034A   23331.62194044  .00001915  00000-0  30143-3 0  9993
2 04382  68.4256 158.9614 1035239  98.5685 273.3865 13.10275814523307
1 04382U 70034A   23331.92727819  .00001966  00000-0  30910-3 0  9996
2 04382  68.4257 158.3430 1035234  98.2942 273.6645 13.10276925523343
1 04382U 70034A   23332.61428693  .00001912  00000-0  30107-3 0  9990
2 04382  68.4256 156.9515 1035201  97.6773 274.2888 13.10279946523431
1  4382U 70034A   23332.84328941  .00001886  00000-0  29710-3 0  9998
2  4382  68.4256 156.4877 1035181  97.4723 274.4958 13.10280816523468
1 04382U 70034A   23332.84328941  .00001886  00000-0  29710-3 0  9998
2 04382  68.4256 156.4877 1035181  97.4723 274.4958 13.10280816523468
1 04382U 70034A   23333.60662960  .00001993  00000-0  31339-3 0  9994
2 04382  68.4258 154.9417 1035131  96.7846 275.1895 13.10284564523569
1  4382U 70034A   23334.06463249  .00001823  00000-0  28777-3 0  9998
2  4382  68.4257 154.0141 1035100  96.3720 275.6048 13.10286063523624
1  4382U 70034A   23335.51497200  .00001912  00000-0  30116-3 0  9992
2  4382  68.4254 151.0764 1035068  95.0688 276.9132 13.10291466523813
1 04382U 70034A   23335.89663809  .00002439  00000-0  38063-3 0  9997
2 04382  68.4254 150.3034 1035060  94.7256 277.2567 13.10294621523861
1 04382U 70034A   23336.58363598  .00002146  00000-0  33652-3 0  9990
2 04382  68.4254 148.9118 1035032  94.1076 277.8741 13.10297137523955
1  4382U 70034A   23336.81263493  .00002120  00000-0  33259-3 0  9994
2  4382  68.4254 148.4480 1035021  93.9011 278.0801 13.10298147523981
1 04382U 70034A   23336.88896768  .00001910  00000-0  30093-3 0  9997
2 04382  68.4254 148.2933 1035021  93.8324 278.1486 13.10298164523998
1 04382U 70034A   23337.57596309  .00001638  00000-0  25999-3 0  9998
2 04382  68.4254 146.9019 1035005  93.2151 278.7635 13.10301048524081
1  4382U 70034A   23337.95762686  .00001385  00000-0  22178-3 0  9998
2  4382  68.4252 146.1288 1035002  92.8713 279.1054 13.10301252524138
1 04382U 70034A   23338.56828791  .00001314  00000-0  21102-3 0  9994
2 04382  68.4250 144.8919 1034995  92.3227 279.6500 13.10303222524216
1 04382U 70034A   23338.87361795  .00001103  00000-0  17925-3 0  9998
2 04382  68.4250 144.2735 1034989  92.0480 279.9224 13.10303708524256
1  4382U 70034A   23339.02628290  .00001068  00000-0  17407-3 0  9997
2  4382  68.4249 143.9642 1034985  91.9108 280.0582 13.10304110524278
1 04382U 70034A   23339.56060988  .00001019  00000-0  16655-3 0  9990
2 04382  68.4249 142.8820 1034977  91.4304 280.5336 13.10305476524344
1 04382U 70034A   23339.86593941  .00000939  00000-0  15459-3 0  9994
2 04382  68.4248 142.2635 1034975  91.1555 280.8051 13.10305984524389
1  4382U 70034A   23340.17126871  .00000898  00000-0  14833-3 0  9993
2  4382  68.4247 141.6450 1034971  90.8811 281.0761 13.10306564524424
1 04382U 70034A   23340.55292996  .00000772  00000-0  12937-3 0  9991
2 04382  68.4245 140.8719 1034968  90.5378 281.4145 13.10307071524471
1 04382U 70034A   23340.85825964  .00000878  00000-0  14527-3 0  9995
2 04382  68.4243 140.2532 1035006  90.2662 281.6825 13.10306719524513
1  4382U 70034A   23341.54524928  .00000644  00000-0  11007-3 0  9999
2  4382  68.4241 138.8615 1035005  89.6482 282.2903 13.10307290524606
1 04382U 70034A   23342.53756624  .00000415  00000-0  75460-4 0  9999
2 04382  68.4240 136.8514 1035002  88.7550 283.1664 13.10308301524736
1  4382U 70034A   23342.76656231  .00000381  00000-0  70420-4 0  9990
2  4382  68.4240 136.3876 1034999  88.5490 283.3681 13.10308491524761
1 04382U 70034A   23342.84289437  .00000353  00000-0  66159-4 0  9992
2 04382  68.4240 136.2330 1035000  88.4802 283.4353 13.10308466524775
1 04382U 70034A   23343.52988230  .00000260  00000-0  52207-4 0  9991
2 04382  68.4239 134.8414 1035005  87.8619 284.0396 13.10309004524867
1  4382U 70034A   23343.83521012  .00000212  00000-0  44910-4 0  9995
2  4382  68.4239 134.2229 1035005  87.5871 284.3077 13.10309157524905
1 04382U 70034A   23343.91154210  .00000147  00000-0  35078-4 0  9998
2 04382  68.4239 134.0682 1035006  87.5186 284.3745 13.10308919524914
1 04382U 70034A   23344.59852955  .00000134  00000-0  33129-4 0  9995
2 04382  68.4238 132.6766 1035012  86.9008 284.9762 13.10309522525000
1 04382U 70034A   23344.90385716  .00000042  00000-0  19344-4 0  9997
2 04382  68.4237 132.0581 1035020  86.6259 285.2435 13.10309290525049
1  4382U 70034A   23345.13285283  .00000023  00000-0  16439-4 0  9992
2  4382  68.4237 131.5942 1035024  86.4199 285.4437 13.10309354525077
1 04382U 70034A   23345.59084409  .00000065  00000-0  22780-4 0  9991
2 04382  68.4237 130.6664 1035027  86.0083 285.8431 13.10309865525131
1 04382U 70034A   23345.89617157 -.00000038  00000-0  72839-5 0  9998
2 04382  68.4236 130.0479 1035034  85.7336 286.1095 13.10309468525176
1  4382U 70034A   23346.50682639  .00000012  00000-0  14813-4 0  9992
2  4382  68.4235 128.8109 1035044  85.1844 286.6411 13.10309943525253
1 04382U 70034A   23346.58315794  .00000034  00000-0  18038-4 0  9992
2 04382  68.4235 128.6563 1035042  85.1160 286.7072 13.10310170525263
1 04382U 70034A   23346.88848489  .00000107  00000-0  29025-4 0  9996
2 04382  68.4235 128.0378 1035044  84.8412 286.9727 13.10310728525302
1 04382U 70034A   23347.57547089  .00000033  00000-0  17974-4 0  9993
2 04382  68.4234 126.6461 1035059  84.2234 287.5687 13.10310525525396
1  4382U 70034A   23347.80446608  .00000043  00000-0  19389-4 0  9997
2  4382  68.4233 126.1822 1035066  84.0175 287.7671 13.10310635525422
1 04382U 70034A   23347.88079777  .00000032  00000-0  17762-4 0  9995
2 04382  68.4233 126.0276 1035067  83.9488 287.8333 13.10310619525439
1 04382U 70034A   23348.56778290  .00000114  00000-0  30151-4 0  9995
2 04382  68.4232 124.6358 1035080  83.3312 288.4272 13.10311281525523
1 04382U 70034A   23348.87310932  .00000104  00000-0  28590-4 0  9997
2 04382  68.4231 124.0173 1035090  83.0566 288.6909 13.10311381525564
1  4382U 70034A   23349.17843581  .00000103  00000-0  28435-4 0  9999
2  4382  68.4231 123.3988 1035098  82.7820 288.9544 13.10311508525601
1 04382U 70034A   23349.56009361  .00000176  00000-0  39452-4 0  9993
2 04382  68.4230 122.6256 1035106  82.4388 289.2832 13.10312084525655
1 04382U 70034A   23349.86541972  .00000180  00000-0  40101-4 0  9993
2 04382  68.4230 122.0070 1035116  82.1642 289.5461 13.10312295525693
